{
  "type": "FeatureCollection",
  "name": "schools",
  "crs": {
    "type": "name",
    "properties": {
      "name": "urn:ogc:def:crs:OGC:1.3:CRS84"
    }
  },
  "features": [
    {
      "type": "Feature",
      "geometry": {
        "type": "Point",
        "coordinates": [
          37.560538,
          55.681453
        ]
      },
      "properties": {
        "description": "Школа 1533 ЛИТ\n\nул. Кржижановского, 4А, Москва\nСайт: <a href=\"https://www.lit.msu.ru/\">www.lit.msu.ru</a>\n<a href=\"https://mathex.ru/shkoly/1533-lit/\">Страница на Mathex</a>",
        "iconCaption": "1533 ЛИТ",
        "marker-color": "#1e98ff"
      }
    },
    {
      "type": "Feature",
      "geometry": {
        "type": "Point",
        "coordinates": [
          37.613072,
          55.641534
        ]
      },
      "properties": {
        "description": "Школа 1580\n\nБалаклавский просп., 6А, Москва\nСайт: <a href=\"https://sch1580.mskobr.ru/\">sch1580.mskobr.ru</a>\n<a href=\"https://mathex.ru/shkoly/1580-2/\">Страница на Mathex</a>",
        "iconCaption": "1580",
        "marker-color": "#1e98ff"
      }
    },
    {
      "type": "Feature",
      "geometry": {
        "type": "Point",
        "coordinates": [
          37.464464,
          55.718172
        ]
      },
      "properties": {
        "description": "Школа Интеллектуал\n\nКременчугская ул., 11, стр. 4, Москва\nСайт: <a href=\"https://sch-int.ru/\">sch-int.ru</a>\n<a href=\"https://mathex.ru/shkoly/intellektual/\">Страница на Mathex</a>",
        "iconCaption": "Интел.",
        "marker-color": "#1e98ff"
      }
    },
    {
      "type": "Feature",
      "geometry": {
        "type": "Point",
        "coordinates": [
          37.422674,
          55.557541
        ]
      },
      "properties": {
        "description": "Летово\n\nМосква, Новомосковский административный округ, район Коммунарка, Зимёнковская улица, 3\nСайт: <a href=\"https://letovo.ru/\">letovo.ru</a>\n<a href=\"https://mathex.ru/shkoly/letovo/\">Страница на Mathex</a>",
        "iconCaption": "Летово",
        "marker-color": "#1e98ff"
      }
    },
    {
      "type": "Feature",
      "geometry": {
        "type": "Point",
        "coordinates": [
          37.56494,
          55.725808
        ]
      },
      "properties": {
        "description": "Школа 1535\n\nУсачёва ул., 50, Москва\nСайт: <a href=\"https://sch1535.mskobr.ru/\">sch1535.mskobr.ru</a>\n<a href=\"https://mathex.ru/shkoly/shkola-1535/\">Страница на Mathex</a>",
        "iconCaption": "1535",
        "marker-color": "#1e98ff"
      }
    },
    {
      "type": "Feature",
      "geometry": {
        "type": "Point",
        "coordinates": [
          37.486176,
          55.656057
        ]
      },
      "properties": {
        "description": "Школа 1543\n\nул. 26 Бакинских Комиссаров, 3, корп. 5, Москва\nСайт: <a href=\"http://www.1543.ru/\">www.1543.ru</a>\n<a href=\"https://mathex.ru/shkoly/shkola-1543/\">Страница на Mathex</a>",
        "iconCaption": "1543",
        "marker-color": "#1e98ff"
      }
    },
    {
      "type": "Feature",
      "geometry": {
        "type": "Point",
        "coordinates": [
          37.614734,
          55.759653
        ]
      },
      "properties": {
        "description": "Школа 179\n\nул. Большая Дмитровка, 5/6с7, Москва\nСайт: <a href=\"https://www.179.ru/\">www.179.ru</a>\n<a href=\"https://mathex.ru/shkoly/skola-179/\">Страница на Mathex</a>",
        "iconCaption": "179",
        "marker-color": "#1e98ff"
      }
    },
    {
      "type": "Feature",
      "geometry": {
        "type": "Point",
        "coordinates": [
          37.53278,
          55.544754
        ]
      },
      "properties": {
        "description": "Школа 2007\n\nул. Горчакова, 9, корп. 1, Москва\nСайт: <a href=\"http://www.fmsh2007.ru/\">www.fmsh2007.ru</a>\n<a href=\"https://mathex.ru/shkoly/skola-2007/\">Страница на Mathex</a>",
        "iconCaption": "2007",
        "marker-color": "#1e98ff"
      }
    },
    {
      "type": "Feature",
      "geometry": {
        "type": "Point",
        "coordinates": [
          37.604987,
          55.74862
        ]
      },
      "properties": {
        "description": "Школа 57\n\nМалый Знаменский пер., 7/10с5, Москва\nСайт: <a href=\"https://www.sch57.ru/\">www.sch57.ru</a>\n<a href=\"https://mathex.ru/shkoly/skola-57/\">Страница на Mathex</a>",
        "iconCaption": "57",
        "marker-color": "#1e98ff"
      }
    },
    {
      "type": "Feature",
      "geometry": {
        "type": "Point",
        "coordinates": [
          37.621875,
          55.789492
        ]
      },
      "properties": {
        "description": "ЦПМ\n\nОлимпийский просп., 11, стр. 1, Москва\nСайт: <a href=\"https://xn----7sb3aehik9cm.xn--p1ai/\">xn----7sb3aehik9cm.xn--p1ai</a>\n<a href=\"https://mathex.ru/shkoly/skola-cpm/\">Страница на Mathex</a>",
        "iconCaption": "ЦПМ",
        "marker-color": "#1e98ff"
      }
    },
    {
      "type": "Feature",
      "geometry": {
        "type": "Point",
        "coordinates": [
          37.605149,
          55.718922
        ]
      },
      "properties": {
        "description": "Лицей Воробьевы Горы\n\nДонская ул., 37, Москва\nСайт: <a href=\"https://vorobyevy-gory.mskobr.ru/\">vorobyevy-gory.mskobr.ru</a>\n<a href=\"https://mathex.ru/shkoly/vorobgory/\">Страница на Mathex</a>",
        "iconCaption": "Воробёвы",
        "marker-color": "#1e98ff"
      }
    },
    {
      "type": "Feature",
      "geometry": {
        "type": "Point",
        "coordinates": [
          37.556442,
          55.697985
        ]
      },
      "properties": {
        "description": "Лицей Вторая школа\n\nул. Фотиевой, 18, Москва\nСайт: <a href=\"https://sch2.ru/\">sch2.ru</a>\n<a href=\"https://mathex.ru/shkoly/vtoraya-shkola/\">Страница на Mathex</a>",
        "iconCaption": "Л2Ш",
        "marker-color": "#1e98ff"
      }
    },
    {
      "type": "Feature",
      "geometry": {
        "type": "Point",
        "coordinates": [
          37.524875,
          55.694814
        ]
      },
      "properties": {
        "description": "Университетская гимназия МГУ\n\nЛомоносовский проспект, 27, корп. 7\n<a href=\"https://mathex.ru/shkoly/drugie-top-school/\">Страница на Mathex</a>",
        "iconCaption": "УГ МГУ",
        "marker-color": "#1e98ff"
      }
    },
    {
      "type": "Feature",
      "geometry": {
        "type": "Point",
        "coordinates": [
          37.642887,
          55.874521
        ]
      },
      "properties": {
        "description": "Школа 1568 имени Пабло Неруды\n\nпроспект Шокальского, 7, корп. 2\nСайт: <a href=\"https://sch1568.mskobr.ru/\">sch1568.mskobr.ru</a>\n<a href=\"https://mathex.ru/shkoly/drugie-top-school/\">Страница на Mathex</a>",
        "iconCaption": "1568",
        "marker-color": "#1e98ff"
      }
    },
    {
      "type": "Feature",
      "geometry": {
        "type": "Point",
        "coordinates": [
          37.57413,
          55.684726
        ]
      },
      "properties": {
        "description": "Школа 1534\n\nулица Кедрова, 11А\nСайт: <a href=\"https://sch1534.mskobr.ru/\">sch1534.mskobr.ru</a>\n<a href=\"https://mathex.ru/shkoly/drugie-top-school/\">Страница на Mathex</a>",
        "iconCaption": "1534",
        "marker-color": "#1e98ff"
      }
    },
    {
      "type": "Feature",
      "geometry": {
        "type": "Point",
        "coordinates": [
          37.532691,
          55.663141
        ]
      },
      "properties": {
        "description": "Школа 1514\n\nулица Академика Челомея, 6А\nСайт: <a href=\"https://sch1514.mskobr.ru/\">sch1514.mskobr.ru</a>\n<a href=\"https://mathex.ru/shkoly/drugie-top-school/\">Страница на Mathex</a>",
        "iconCaption": "1514",
        "marker-color": "#1e98ff"
      }
    },
    {
      "type": "Feature",
      "geometry": {
        "type": "Point",
        "coordinates": [
          37.450055,
          55.787923
        ]
      },
      "properties": {
        "description": "Курчатовская школа\n\nулица Паршина, 39\nСайт: <a href=\"https://kurchat.mskobr.ru/\">kurchat.mskobr.ru</a>\n<a href=\"https://mathex.ru/shkoly/drugie-top-school/\">Страница на Mathex</a>",
        "iconCaption": "Курчат.",
        "marker-color": "#1e98ff"
      }
    },
    {
      "type": "Feature",
      "geometry": {
        "type": "Point",
        "coordinates": [
          37.603541,
          55.773849
        ]
      },
      "properties": {
        "description": "Силаэдр\n\nДолгоруковская улица, 7\nСайт: <a href=\"https://silaedr.ru/\">silaedr.ru</a>\n<a href=\"https://mathex.ru/shkoly/drugie-top-school/\">Страница на Mathex</a>",
        "iconCaption": "Силаэдр",
        "marker-color": "#1e98ff"
      }
    },
    {
      "type": "Feature",
      "geometry": {
        "type": "Point",
        "coordinates": [
          37.34965,
          55.00768
        ]
      },
      "properties": {
        "description": "Абсолют\n\nМосковская область, городской округ Серпухов, деревня Райсеменовское, 12а\nСайт: <a href=\"https://absolut-school.ru/\">absolut-school.ru</a>",
        "iconCaption": "Абсолют",
        "marker-color": "#ffd21e"
      }
    },
    {
      "type": "Feature",
      "geometry": {
        "type": "Point",
        "coordinates": [
          37.724095,
          55.909519
        ]
      },
      "properties": {
        "description": "Вектор\n\nМосковская область, Мытищи, Летная улица, 21б\n320 000 — 540 000 руб/год\nСайт: <a href=\"https://vektor-school.ru/\">vektor-school.ru</a>",
        "iconCaption": "Вектор",
        "marker-color": "#ffd21e"
      }
    },
    {
      "type": "Feature",
      "geometry": {
        "type": "Point",
        "coordinates": [
          37.402291,
          55.648199
        ]
      },
      "properties": {
        "description": "Колледж XXI века\n\nМосква, Солнцевский проспект, 7к3\n445 000 — 560 000 руб/год\nСайт: <a href=\"https://xxi-college.ru/\">xxi-college.ru</a>",
        "iconCaption": "Колл.XXI",
        "marker-color": "#ffd21e"
      }
    },
    {
      "type": "Feature",
      "geometry": {
        "type": "Point",
        "coordinates": [
          37.538997,
          55.417133
        ]
      },
      "properties": {
        "description": "Лицей ЭКУС\n\nМосковская область, Подольск, Народная улица, 12\n265 500 — 294 300 руб/год\nСайт: <a href=\"https://ecus.ru/\">ecus.ru</a>",
        "iconCaption": "ЭКУС",
        "marker-color": "#ffd21e"
      }
    },
    {
      "type": "Feature",
      "geometry": {
        "type": "Point",
        "coordinates": [
          37.590093,
          55.892905
        ]
      },
      "properties": {
        "description": "Лотос\n\nМосква, Шенкурский проезд, 5\n540 000 — 579 500 руб/год\nСайт: <a href=\"https://lotos-school.ru/\">lotos-school.ru</a>",
        "iconCaption": "Лотос",
        "marker-color": "#ffd21e"
      }
    },
    {
      "type": "Feature",
      "geometry": {
        "type": "Point",
        "coordinates": [
          37.706272,
          55.549872
        ]
      },
      "properties": {
        "description": "Русская школа\n\nМосковская область, г. Видное, ул. Советская, дом 16\n310 000 — 450 000 руб/год\nСайт: <a href=\"https://russchool.ru/\">russchool.ru</a>",
        "iconCaption": "Рус.шк.",
        "marker-color": "#ffd21e"
      }
    },
    {
      "type": "Feature",
      "geometry": {
        "type": "Point",
        "coordinates": [
          37.676798,
          55.683884
        ]
      },
      "properties": {
        "description": "Самсон\n\nМосква, Кленовый бульвар, 7к2\n405 000 — 540 000 руб/год\nСайт: <a href=\"https://samson-edu.ru/\">samson-edu.ru</a>",
        "iconCaption": "Самсон",
        "marker-color": "#ffd21e"
      }
    },
    {
      "type": "Feature",
      "geometry": {
        "type": "Point",
        "coordinates": [
          37.477202,
          55.631956
        ]
      },
      "properties": {
        "description": "Солнечный ветер\n\nМосква, улица Академика Варги, 2а\n522 000 руб/год\nСайт: <a href=\"https://solnechnyveter.ru/\">solnechnyveter.ru</a>",
        "iconCaption": "С.Ветер",
        "marker-color": "#ffd21e"
      }
    },
    {
      "type": "Feature",
      "geometry": {
        "type": "Point",
        "coordinates": [
          37.588341,
          55.616681
        ]
      },
      "properties": {
        "description": "Центр образования «Столичный»\n\nМосква, Чертановская улица, 34а\n378 000 — 710 500 руб/год\nСайт: <a href=\"https://stolichny-school.ru/\">stolichny-school.ru</a>",
        "iconCaption": "Столичн.",
        "marker-color": "#ffd21e"
      }
    },
    {
      "type": "Feature",
      "geometry": {
        "type": "Point",
        "coordinates": [
          37.590749,
          55.805245
        ]
      },
      "properties": {
        "description": "Академическая гимназия\n\nМосква, Новодмитровская улица, 2с9\n1 000 000 руб/год\nСайт: <a href=\"https://academgym.ru/\">academgym.ru</a>",
        "iconCaption": "Акад.гим.",
        "marker-color": "#ff7800"
      }
    },
    {
      "type": "Feature",
      "geometry": {
        "type": "Point",
        "coordinates": [
          37.156359,
          55.621206
        ]
      },
      "properties": {
        "description": "Гимназия Святителя Василия Великого\n\nМосковская область, Одинцовский городской округ, деревня Зайцево, Кокошкинское шоссе, 1\n909 000 — 1 116 000 руб/год\nСайт: <a href=\"https://vasiliyvelikogo.ru/\">vasiliyvelikogo.ru</a>",
        "iconCaption": "ГСВВ",
        "marker-color": "#ff7800"
      }
    },
    {
      "type": "Feature",
      "geometry": {
        "type": "Point",
        "coordinates": [
          37.277371,
          55.680661
        ]
      },
      "properties": {
        "description": "Горчаковский лицей МГИМО\n\nМосковская область, Одинцово, Новоcпортивная улица, 3\n900 000 — 1 050 000 руб/год\nСайт: <a href=\"https://gorchakov.msk.ru/\">gorchakov.msk.ru</a>",
        "iconCaption": "МГИМО",
        "marker-color": "#ff7800"
      }
    },
    {
      "type": "Feature",
      "geometry": {
        "type": "Point",
        "coordinates": [
          38.129792,
          55.588923
        ]
      },
      "properties": {
        "description": "Древо познаний\n\nМосковская область, Жуковский, улица Калугина, 9/1\n605 000 руб/год\nСайт: <a href=\"https://drevoznanij.ru/\">drevoznanij.ru</a>",
        "iconCaption": "Древо",
        "marker-color": "#ff7800"
      }
    },
    {
      "type": "Feature",
      "geometry": {
        "type": "Point",
        "coordinates": [
          37.667878,
          55.791071
        ]
      },
      "properties": {
        "description": "Европейская гимназия\n\nМосква, улица Сокольнический Вал, 28\n775 000 — 1 143 000 руб/год\nСайт: <a href=\"https://eurogym.ru/\">eurogym.ru</a>",
        "iconCaption": "Евр.гим.",
        "marker-color": "#ff7800"
      }
    },
    {
      "type": "Feature",
      "geometry": {
        "type": "Point",
        "coordinates": [
          37.603577,
          55.721939
        ]
      },
      "properties": {
        "description": "Золотое сечение\n\nМосква, Ленинский проспект, 13а (5–11-й класс)\n1 120 000 — 1 300 000 руб/год\nСайт: <a href=\"https://zolsech.ru/\">zolsech.ru</a>",
        "iconCaption": "Зол.сеч.",
        "marker-color": "#ff7800"
      }
    },
    {
      "type": "Feature",
      "geometry": {
        "type": "Point",
        "coordinates": [
          37.743085,
          55.677387
        ]
      },
      "properties": {
        "description": "Карьера\n\nМосква, Краснодарская улица, 11\n650 000 — 730 000 руб/год\nСайт: <a href=\"https://kariera-school.ru/\">kariera-school.ru</a>",
        "iconCaption": "Карьера",
        "marker-color": "#ff7800"
      }
    },
    {
      "type": "Feature",
      "geometry": {
        "type": "Point",
        "coordinates": [
          37.775092,
          55.80651
        ]
      },
      "properties": {
        "description": "Колибри\n\nМосква, Никитинская улица, 24а\n700 000 — 720 000 руб/год\nСайт: <a href=\"https://kolibri-school.ru/\">kolibri-school.ru</a>",
        "iconCaption": "Колибри",
        "marker-color": "#ff7800"
      }
    },
    {
      "type": "Feature",
      "geometry": {
        "type": "Point",
        "coordinates": [
          37.375674,
          55.898922
        ]
      },
      "properties": {
        "description": "Лидер\n\nМосква, Юровская улица, 41\n525 000 — 740 000 руб/год\nСайт: <a href=\"https://liderschool.ru/\">liderschool.ru</a>",
        "iconCaption": "Лидер",
        "marker-color": "#ff7800"
      }
    },
    {
      "type": "Feature",
      "geometry": {
        "type": "Point",
        "coordinates": [
          37.333938,
          55.72814
        ]
      },
      "properties": {
        "description": "Лидеры\n\nМосковская область, Одинцовский городской округ, село Ромашково, Никольская улица, 16к2\n1 140 000 руб/год\nСайт: <a href=\"https://lidery-msk.ru/\">lidery-msk.ru</a>",
        "iconCaption": "Лидеры",
        "marker-color": "#ff7800"
      }
    },
    {
      "type": "Feature",
      "geometry": {
        "type": "Point",
        "coordinates": [
          37.557502,
          55.808113
        ]
      },
      "properties": {
        "description": "Лучик\n\nМосква, улица Вучетича, 7а\n495 000 — 841 000 руб/год\nСайт: <a href=\"https://luchik-school.ru/\">luchik-school.ru</a>",
        "iconCaption": "Лучик",
        "marker-color": "#ff7800"
      }
    },
    {
      "type": "Feature",
      "geometry": {
        "type": "Point",
        "coordinates": [
          37.527157,
          55.678032
        ]
      },
      "properties": {
        "description": "Москвич\n\nМосква, Ленинский проспект, 86б\n680 000 руб/год\nСайт: <a href=\"https://moskvich-school.ru/\">moskvich-school.ru</a>",
        "iconCaption": "Москвич",
        "marker-color": "#ff7800"
      }
    },
    {
      "type": "Feature",
      "geometry": {
        "type": "Point",
        "coordinates": [
          37.642752,
          55.773449
        ]
      },
      "properties": {
        "description": "Московский лицей «Ступени»\n\nМосква, Скорняжный переулок, 3с2\n798 300 руб/год\nСайт: <a href=\"https://stupeni.ru/\">stupeni.ru</a>",
        "iconCaption": "Ступени",
        "marker-color": "#ff7800"
      }
    },
    {
      "type": "Feature",
      "geometry": {
        "type": "Point",
        "coordinates": [
          37.503747,
          55.806034
        ]
      },
      "properties": {
        "description": "Муми-Тролль\n\nМосква, Волоколамское шоссе, 1а\nС 753 000 — 890 000 руб/год\nСайт: <a href=\"https://mumitroll.ru/\">mumitroll.ru</a>",
        "iconCaption": "Муми",
        "marker-color": "#ff7800"
      }
    },
    {
      "type": "Feature",
      "geometry": {
        "type": "Point",
        "coordinates": [
          37.722163,
          55.636031
        ]
      },
      "properties": {
        "description": "Наследник\n\nМосква, улица Борисовские Пруды, 19к1\n960 400 — 1 395 000 руб/год\nСайт: <a href=\"https://naslednik.ru/\">naslednik.ru</a>",
        "iconCaption": "Наследн.",
        "marker-color": "#ff7800"
      }
    },
    {
      "type": "Feature",
      "geometry": {
        "type": "Point",
        "coordinates": [
          37.295733,
          55.423662
        ]
      },
      "properties": {
        "description": "Ника\n\nМосква, поселение Краснопахорское, село Красное, 3а\n942 000 — 991 300 руб/год\nСайт: <a href=\"https://nika-school.ru/\">nika-school.ru</a>",
        "iconCaption": "Ника",
        "marker-color": "#ff7800"
      }
    },
    {
      "type": "Feature",
      "geometry": {
        "type": "Point",
        "coordinates": [
          37.490308,
          55.704844
        ]
      },
      "properties": {
        "description": "Новая школа\n\nМосква, Мосфильмовская улица, 88к5\n1 070 000 руб/год\nСайт: <a href=\"https://newschool.ru/\">newschool.ru</a>",
        "iconCaption": "Новая",
        "marker-color": "#ff7800"
      }
    },
    {
      "type": "Feature",
      "geometry": {
        "type": "Point",
        "coordinates": [
          37.316933,
          55.757004
        ]
      },
      "properties": {
        "description": "Областная гимназия имени Е. М. Примакова\n\nМосковская область, Одинцовский городской округ, деревня Раздоры, Утренняя улица, 1\n990 000 руб/год\nСайт: <a href=\"https://gymnasium-primakova.ru/\">gymnasium-primakova.ru</a>",
        "iconCaption": "Примаков.",
        "marker-color": "#ff7800"
      }
    },
    {
      "type": "Feature",
      "geometry": {
        "type": "Point",
        "coordinates": [
          37.066752,
          55.802381
        ]
      },
      "properties": {
        "description": "Областной технолицей имени В. И. Долгих\n\nМосковская область, муниципальный округ Истра, село Павловская Слобода, Академическая улица, 1\n990 000 руб/год\nСайт: <a href=\"https://tehnolicey.ru/\">tehnolicey.ru</a>",
        "iconCaption": "Долгих",
        "marker-color": "#ff7800"
      }
    },
    {
      "type": "Feature",
      "geometry": {
        "type": "Point",
        "coordinates": [
          37.411957,
          55.747439
        ]
      },
      "properties": {
        "description": "Олимп-Плюс\n\nМосква, Рублевское шоссе, 121\n923 000 — 1 073 000 руб/год\nСайт: <a href=\"https://olimp-plus.ru/\">olimp-plus.ru</a>",
        "iconCaption": "Олимп+",
        "marker-color": "#ff7800"
      }
    },
    {
      "type": "Feature",
      "geometry": {
        "type": "Point",
        "coordinates": [
          37.541395,
          55.682052
        ]
      },
      "properties": {
        "description": "СААШ «Марина»\n\nМосква, улица Панферова, 6к2\n600 000 руб/год\nСайт: <a href=\"https://saash-marina.ru/\">saash-marina.ru</a>",
        "iconCaption": "Марина",
        "marker-color": "#ff7800"
      }
    },
    {
      "type": "Feature",
      "geometry": {
        "type": "Point",
        "coordinates": [
          37.562694,
          55.673367
        ]
      },
      "properties": {
        "description": "Феникс\n\nМосква, Профсоюзная улица, 27к3\n342 000 — 825 000 руб/год\nСайт: <a href=\"https://feniks-school.ru/\">feniks-school.ru</a>",
        "iconCaption": "Феникс",
        "marker-color": "#ff7800"
      }
    },
    {
      "type": "Feature",
      "geometry": {
        "type": "Point",
        "coordinates": [
          37.621875,
          55.789492
        ]
      },
      "properties": {
        "description": "Школа ЦПМ\n\nМосква, Олимпийский проспект, 11с1\n577 800 — 652 500 руб/год\nСайт: <a href=\"https://sckool-cpm.ru/\">sckool-cpm.ru</a>",
        "iconCaption": "ЦПМ",
        "marker-color": "#ff7800"
      }
    },
    {
      "type": "Feature",
      "geometry": {
        "type": "Point",
        "coordinates": [
          37.574139,
          55.672174
        ]
      },
      "properties": {
        "description": "Британская международная школа\n\nМосква, Нахимовский проспект, 35а\n1 270 000 — 3 476 000 руб/год\nСайт: <a href=\"https://bismoscow.com/\">bismoscow.com</a>",
        "iconCaption": "Brit.Int.",
        "marker-color": "#ef3c4a"
      }
    },
    {
      "type": "Feature",
      "geometry": {
        "type": "Point",
        "coordinates": [
          37.405705,
          55.807193
        ]
      },
      "properties": {
        "description": "Интеграция XXI век\n\nМосква, улица Маршала Катукова, 16к1\n950 000 — 1 985 000 руб/год\nСайт: <a href=\"https://integracia21.ru/\">integracia21.ru</a>",
        "iconCaption": "Интегр.",
        "marker-color": "#ef3c4a"
      }
    },
    {
      "type": "Feature",
      "geometry": {
        "type": "Point",
        "coordinates": [
          37.456001,
          55.71447
        ]
      },
      "properties": {
        "description": "Ломоносовская школа\n\nМосква, Аминьевское шоссе, 18к4\n1 845 000 руб/год\nСайт: <a href=\"https://lomonosov-school.ru/\">lomonosov-school.ru</a>",
        "iconCaption": "Ломонос.",
        "marker-color": "#ef3c4a"
      }
    },
    {
      "type": "Feature",
      "geometry": {
        "type": "Point",
        "coordinates": [
          37.009673,
          55.788738
        ]
      },
      "properties": {
        "description": "Ломоносовская школа «Интек»\n\nМосковская область, муниципальный округ Истра, деревня Воронино, клубный поселок «Монолит», Клубная аллея, 2\n1 845 000 руб/год\nСайт: <a href=\"https://lomonosov-intek.ru/\">lomonosov-intek.ru</a>",
        "iconCaption": "Интек",
        "marker-color": "#ef3c4a"
      }
    },
    {
      "type": "Feature",
      "geometry": {
        "type": "Point",
        "coordinates": [
          37.63606,
          56.085008
        ]
      },
      "properties": {
        "description": "Ломоносовская школа — Зеленый мыс\n\nМосковская область, городской округ Мытищи, деревня Подольниха, Клубная улица, 2с1\n1 485 000 руб/год\nСайт: <a href=\"https://lomonosov-zm.ru/\">lomonosov-zm.ru</a>",
        "iconCaption": "Зел.мыс",
        "marker-color": "#ef3c4a"
      }
    },
    {
      "type": "Feature",
      "geometry": {
        "type": "Point",
        "coordinates": [
          37.351393,
          55.691597
        ]
      },
      "properties": {
        "description": "Международная гимназия «Сколково»\n\nМосква, территория инновационного центра «Сколково», улица Зворыкина, 4\n1 643 000 руб/год\nСайт: <a href=\"https://gymnasium.skolkovo.ru/\">gymnasium.skolkovo.ru</a>",
        "iconCaption": "Сколково",
        "marker-color": "#ef3c4a"
      }
    },
    {
      "type": "Feature",
      "geometry": {
        "type": "Point",
        "coordinates": [
          37.525261,
          55.713791
        ]
      },
      "properties": {
        "description": "Наши традиции\n\nМосква, Мичуринский проспект, 6к4\n1 320 000 руб/год\nСайт: <a href=\"https://nashi-tradicii.ru/\">nashi-tradicii.ru</a>",
        "iconCaption": "Традиции",
        "marker-color": "#ef3c4a"
      }
    },
    {
      "type": "Feature",
      "geometry": {
        "type": "Point",
        "coordinates": [
          37.5736,
          55.72743
        ]
      },
      "properties": {
        "description": "Новый взгляд\n\nМосква, 1-й Шибаевский переулок, 4\n1 067 000 — 2 145 000 руб/год\nСайт: <a href=\"https://newlookschool.ru/\">newlookschool.ru</a>",
        "iconCaption": "Взгляд",
        "marker-color": "#ef3c4a"
      }
    },
    {
      "type": "Feature",
      "geometry": {
        "type": "Point",
        "coordinates": [
          37.126113,
          55.80143
        ]
      },
      "properties": {
        "description": "Павловская гимназия\n\nМосковская область, муниципальный округ Истра, деревня Веледниково, Живописная улица, 136\n1 950 000 — 2 150 000 руб/год\nСайт: <a href=\"https://pavl-gymn.ru/\">pavl-gymn.ru</a>",
        "iconCaption": "Павловск.",
        "marker-color": "#ef3c4a"
      }
    },
    {
      "type": "Feature",
      "geometry": {
        "type": "Point",
        "coordinates": [
          36.954858,
          55.76957
        ]
      },
      "properties": {
        "description": "Первая Московская гимназия\n\nМосковская область, Одинцовский городской округ, деревня Липки, 63а\n1 500 000 — 2 200 000 руб/год\nСайт: <a href=\"https://1msg.ru/\">1msg.ru</a>",
        "iconCaption": "1Моск.гим",
        "marker-color": "#ef3c4a"
      }
    },
    {
      "type": "Feature",
      "geometry": {
        "type": "Point",
        "coordinates": [
          37.226248,
          55.736295
        ]
      },
      "properties": {
        "description": "Президент\n\nМосковская область, Одинцовский городской округ, деревня Жуковка, Ильинский подъезд, 2с1–4\n2 000 000 — 2 300 000 руб/год\nСайт: <a href=\"https://president-school.ru/\">president-school.ru</a>",
        "iconCaption": "Презид.",
        "marker-color": "#ef3c4a"
      }
    },
    {
      "type": "Feature",
      "geometry": {
        "type": "Point",
        "coordinates": [
          37.364751,
          55.698148
        ]
      },
      "properties": {
        "description": "Сколка\n\nМосква, территория инновационного центра «Сколково», Большой бульвар, 37\n1 705 000 — 2 475 000 руб/год\nСайт: <a href=\"https://skolka-school.ru/\">skolka-school.ru</a>",
        "iconCaption": "Сколка",
        "marker-color": "#ef3c4a"
      }
    },
    {
      "type": "Feature",
      "geometry": {
        "type": "Point",
        "coordinates": [
          37.505723,
          55.715849
        ]
      },
      "properties": {
        "description": "Снегири\n\nМосква, Минская улица, 2Вк2\n1 320 000 — 1 920 000 руб/год\nСайт: <a href=\"https://snegiri-school.ru/\">snegiri-school.ru</a>",
        "iconCaption": "Снегири",
        "marker-color": "#ef3c4a"
      }
    },
    {
      "type": "Feature",
      "geometry": {
        "type": "Point",
        "coordinates": [
          37.466098,
          55.784015
        ]
      },
      "properties": {
        "description": "Хорошкола\n\nМосква, улица Маршала Тухачевского, 45к2\n1 490 000 — 1 890 000 руб/год\nСайт: <a href=\"https://horoshkola.ru/\">horoshkola.ru</a>",
        "iconCaption": "Хорошкола",
        "marker-color": "#ef3c4a"
      }
    },
    {
      "type": "Feature",
      "geometry": {
        "type": "Point",
        "coordinates": [
          37.656568,
          55.743015
        ]
      },
      "properties": {
        "description": "Школа Сотрудничества\n\nМосква, улица Александра Солженицына, 9а\n1 332 000 — 1 746 000 руб/год\nСайт: <a href=\"https://schso.ru/\">schso.ru</a>",
        "iconCaption": "Сотрудн.",
        "marker-color": "#ef3c4a"
      }
    },
    {
      "type": "Feature",
      "geometry": {
        "type": "Point",
        "coordinates": [
          37.473734,
          55.85576
        ]
      },
      "properties": {
        "description": "Cambridge International School\n\nМосква, Фестивальная улица, 7а\n1 554 000 — 3 389 000 руб/год\nСайт: <a href=\"https://cambridge-school.ru/\">cambridge-school.ru</a>",
        "iconCaption": "Cambridge",
        "marker-color": "#ef3c4a"
      }
    },
    {
      "type": "Feature",
      "geometry": {
        "type": "Point",
        "coordinates": [
          37.617644,
          55.755819
        ]
      },
      "properties": {
        "description": "Heritage International School\n\nМосква, Верхняя Краснобогатырская улица, 90с3\n1 790 000 — 2 380 000 руб/год\nСайт: <a href=\"https://heritage-school.ru/\">heritage-school.ru</a>",
        "iconCaption": "Heritage",
        "marker-color": "#ef3c4a"
      }
    },
    {
      "type": "Feature",
      "geometry": {
        "type": "Point",
        "coordinates": [
          37.275135,
          55.74075
        ]
      },
      "properties": {
        "description": "Russian International School\n\nМосковская область, Одинцовский городской округ, деревня Барвиха, 42\n1 320 000 — 2 472 000 руб/год\nСайт: <a href=\"https://russianschool.com/\">russianschool.com</a>",
        "iconCaption": "RIS",
        "marker-color": "#ef3c4a"
      }
    },
    {
      "type": "Feature",
      "geometry": {
        "type": "Point",
        "coordinates": [
          37.056458,
          55.822144
        ]
      },
      "properties": {
        "description": "Wunderpark International School\n\nМосковская область, муниципальный округ Истра, деревня Борзые, 1\n1 700 000 — 2 100 000 руб/год\nСайт: <a href=\"https://wunderpark.school/\">wunderpark.school</a>",
        "iconCaption": "Wunder.",
        "marker-color": "#ef3c4a"
      }
    }
  ]
}