{"type":"FeatureCollection","metadata":{"name":"Импорт из «schools.geojson»","creator":"Yandex Map Constructor"},"features":[{"type":"Feature","id":0,"geometry":{"type":"Point","coordinates":[37.560538,55.681453]},"properties":{"description":"Школа 1533 ЛИТ\n\r<b>ул. Кржижановского, 4А, Москва</b><br>Сайт: <a href=\"https://www.lit.msu.ru/\">https://www.lit.msu.ru/</a><br><a href=\"https://mathex.ru/shkoly/1533-lit/\">Страница на Mathex</a>","iconCaption":"1533 ЛИТ","marker-color":"#1e98ff"}},{"type":"Feature","id":1,"geometry":{"type":"Point","coordinates":[37.613072,55.641534]},"properties":{"description":"Школа 1580\n\r<b>Балаклавский просп., 6А, Москва</b><br>Сайт: <a href=\"https://sch1580.mskobr.ru/\">https://sch1580.mskobr.ru/</a><br><a href=\"https://mathex.ru/shkoly/1580-2/\">Страница на Mathex</a>","iconCaption":"1580","marker-color":"#1e98ff"}},{"type":"Feature","id":2,"geometry":{"type":"Point","coordinates":[37.464464,55.718172]},"properties":{"description":"Школа Интеллектуал\n\r<b>Кременчугская ул., 11, стр. 4, Москва</b><br>Сайт: <a href=\"https://sch-int.ru/\">https://sch-int.ru/</a><br><a href=\"https://mathex.ru/shkoly/intellektual/\">Страница на Mathex</a>","iconCaption":"Интеллектуал","marker-color":"#1e98ff"}},{"type":"Feature","id":3,"geometry":{"type":"Point","coordinates":[37.422674,55.557541]},"properties":{"description":"Летово\n\n<b>Москва, Новомосковский административный округ, район Коммунарка, Зимёнковская улица, 3</b><br>Сайт: <a href=\"https://letovo.ru/\">https://letovo.ru/</a><br><a href=\"https://mathex.ru/shkoly/letovo/\">Страница на Mathex</a>","iconCaption":"Летово","marker-color":"#1e98ff"}},{"type":"Feature","id":4,"geometry":{"type":"Point","coordinates":[37.56494,55.725808]},"properties":{"description":"Школа 1535\n\r<b>Усачёва ул., 50, Москва</b><br>Сайт: <a href=\"https://sch1535.mskobr.ru/\">https://sch1535.mskobr.ru/</a><br><a href=\"https://mathex.ru/shkoly/shkola-1535/\">Страница на Mathex</a>","iconCaption":"1535","marker-color":"#1e98ff"}},{"type":"Feature","id":5,"geometry":{"type":"Point","coordinates":[37.486176,55.656057]},"properties":{"description":"Школа 1543\n\r<b>ул. 26 Бакинских Комиссаров, 3, корп. 5, Москва</b><br>Сайт: <a href=\"http://www.1543.ru/\">http://www.1543.ru/</a><br><a href=\"https://mathex.ru/shkoly/shkola-1543/\">Страница на Mathex</a>","iconCaption":"1543","marker-color":"#1e98ff"}},{"type":"Feature","id":6,"geometry":{"type":"Point","coordinates":[37.614734,55.759653]},"properties":{"description":"Школа 179\n\r<b>ул. Большая Дмитровка, 5/6с7, Москва</b><br>Сайт: <a href=\"https://www.179.ru/\">https://www.179.ru/</a><br><a href=\"https://mathex.ru/shkoly/skola-179/\">Страница на Mathex</a>","iconCaption":"179","marker-color":"#1e98ff"}},{"type":"Feature","id":7,"geometry":{"type":"Point","coordinates":[37.53278,55.544754]},"properties":{"description":"Школа 2007\n\n<b>ул. Горчакова, 9, корп. 1, Москва</b><br>Сайт: <a href=\"http://www.fmsh2007.ru/\">http://www.fmsh2007.ru/</a><br><a href=\"https://mathex.ru/shkoly/skola-2007/\">Страница на Mathex</a>","iconCaption":"2007","marker-color":"#1e98ff"}},{"type":"Feature","id":8,"geometry":{"type":"Point","coordinates":[37.604987,55.74862]},"properties":{"description":"Школа 57\n\r<b>Малый Знаменский пер., 7/10с5, Москва</b><br>Сайт: <a href=\"https://www.sch57.ru/\">https://www.sch57.ru/</a><br><a href=\"https://mathex.ru/shkoly/skola-57/\">Страница на Mathex</a>","iconCaption":"57","marker-color":"#1e98ff"}},{"type":"Feature","id":9,"geometry":{"type":"Point","coordinates":[37.621875,55.789492]},"properties":{"description":"ЦПМ\n\r<b>Олимпийский просп., 11, стр. 1, Москва</b><br>Сайт: <a href=\"https://xn----7sb3aehik9cm.xn--p1ai/\">https://xn----7sb3aehik9cm.xn--p1ai/</a><br><a href=\"https://mathex.ru/shkoly/skola-cpm/\">Страница на Mathex</a>","iconCaption":"ЦПМ","marker-color":"#1e98ff"}},{"type":"Feature","id":10,"geometry":{"type":"Point","coordinates":[37.605149,55.718922]},"properties":{"description":"Лицей Воробьевы Горы\n\r<b>Донская ул., 37, Москва</b><br>Сайт: <a href=\"https://vorobyevy-gory.mskobr.ru/\">https://vorobyevy-gory.mskobr.ru/</a><br><a href=\"https://mathex.ru/shkoly/vorobgory/\">Страница на Mathex</a>","iconCaption":"Воробьевы Горы","marker-color":"#1e98ff"}},{"type":"Feature","id":11,"geometry":{"type":"Point","coordinates":[37.556442,55.697985]},"properties":{"description":"Лицей Вторая школа\n\r<b>ул. Фотиевой, 18, Москва</b><br>Сайт: <a href=\"https://sch2.ru/\">https://sch2.ru/</a><br><a href=\"https://mathex.ru/shkoly/vtoraya-shkola/\">Страница на Mathex</a>","iconCaption":"Вторая","marker-color":"#1e98ff"}},{"type":"Feature","id":12,"geometry":{"type":"Point","coordinates":[37.524875,55.694814]},"properties":{"description":"Университетская гимназия МГУ\n\r<b>Ломоносовский проспект, 27, корп. 7</b><br><a href=\"https://mathex.ru/shkoly/drugie-top-school/\">Страница на Mathex</a>","iconCaption":"Университетская гимназия МГУ","marker-color":"#1e98ff"}},{"type":"Feature","id":13,"geometry":{"type":"Point","coordinates":[37.642887,55.874521]},"properties":{"description":"Школа 1568 имени Пабло Неруды\n\r<b>проспект Шокальского, 7, корп. 2</b><br>Сайт: <a href=\"https://sch1568.mskobr.ru/\">https://sch1568.mskobr.ru/</a><br><a href=\"https://mathex.ru/shkoly/drugie-top-school/\">Страница на Mathex</a>","iconCaption":"1568 имени Пабло Неруды","marker-color":"#1e98ff"}},{"type":"Feature","id":14,"geometry":{"type":"Point","coordinates":[37.57413,55.684726]},"properties":{"description":"Школа 1534\n\r<b>улица Кедрова, 11А</b><br>Сайт: <a href=\"https://sch1534.mskobr.ru/\">https://sch1534.mskobr.ru/</a><br><a href=\"https://mathex.ru/shkoly/drugie-top-school/\">Страница на Mathex</a>","iconCaption":"1534","marker-color":"#1e98ff"}},{"type":"Feature","id":15,"geometry":{"type":"Point","coordinates":[37.532691,55.663141]},"properties":{"description":"Школа 1514\n\r<b>улица Академика Челомея, 6А</b><br>Сайт: <a href=\"https://sch1514.mskobr.ru/\">https://sch1514.mskobr.ru/</a><br><a href=\"https://mathex.ru/shkoly/drugie-top-school/\">Страница на Mathex</a>","iconCaption":"1514","marker-color":"#1e98ff"}},{"type":"Feature","id":16,"geometry":{"type":"Point","coordinates":[37.450055,55.787923]},"properties":{"description":"Курчатовская школа\n\r<b>улица Паршина, 39</b><br>Сайт: <a href=\"https://kurchat.mskobr.ru/\">https://kurchat.mskobr.ru/</a><br><a href=\"https://mathex.ru/shkoly/drugie-top-school/\">Страница на Mathex</a>","iconCaption":"Курчатовская","marker-color":"#1e98ff"}},{"type":"Feature","id":17,"geometry":{"type":"Point","coordinates":[37.603541,55.773849]},"properties":{"description":"Силаэдр\n\r<b>Долгоруковская улица, 7</b><br>Сайт: <a href=\"https://silaedr.ru/\">https://silaedr.ru/</a><br><a href=\"https://mathex.ru/shkoly/drugie-top-school/\">Страница на Mathex</a>","iconCaption":"Силаэдр","marker-color":"#1e98ff"}},{"type":"Feature","id":18,"geometry":{"type":"Point","coordinates":[37.724095,55.909519]},"properties":{"description":"Вектор\n\r<b>Московская область, Мытищи, Летная улица, 21б</b><br>Сегмент: низкий (цвет: жёлтый)<br>Цена: 320 000 — 540 000 руб/год<br>Основана: 1997<br><i>Приоритетные ценности: доброта и взаимопомощь, моральные и семейные ценности, эмпатия и способность понимать других.</i>","iconCaption":"Вектор","marker-color":"#1e98ff"}},{"type":"Feature","id":19,"geometry":{"type":"Point","coordinates":[37.402291,55.648199]},"properties":{"description":"Колледж XXI века\n\r<b>Москва, Солнцевский проспект, 7к3</b><br>Сегмент: низкий (цвет: жёлтый)<br>Цена: 445 000 — 560 000 руб/год<br>Основана: 1991<br><i>Приоритетные ценности: моральные и семейные ценности, самореализация и развитие талантов, эмоциональная безопасность и поддержка.</i>","iconCaption":"Колледж XXI века","marker-color":"#1e98ff"}},{"type":"Feature","id":20,"geometry":{"type":"Point","coordinates":[37.538997,55.417133]},"properties":{"description":"Лицей ЭКУС\n\r<b>Московская область, Подольск, Народная улица, 12</b><br>Сегмент: низкий (цвет: жёлтый)<br>Цена: 265 500 — 294 300 руб/год<br>Основана: 1991<br><i>Приоритетные ценности: академические достижения и результативность, доброта и взаимопомощь, самореализация и развитие талантов.</i>","iconCaption":"ЭКУС","marker-color":"#1e98ff"}},{"type":"Feature","id":21,"geometry":{"type":"Point","coordinates":[37.590093,55.892905]},"properties":{"description":"Лотос\n\r<b>Москва, Шенкурский проезд, 5</b><br>Сегмент: низкий (цвет: жёлтый)<br>Цена: 540 000 — 579 500 руб/год<br>Основана: 1992<br><i>Приоритетные ценности: ответственность за свои действия и обучение, сотрудничество и командная работа, самореализация и развитие талантов.</i>","iconCaption":"Лотос","marker-color":"#1e98ff"}},{"type":"Feature","id":22,"geometry":{"type":"Point","coordinates":[37.706272,55.549872]},"properties":{"description":"Русская школа\n\n<b>Московская область, г. Видное, ул. Советская, дом 16</b><br>Сегмент: низкий (цвет: жёлтый)<br>Цена: 310 000 — 450 000 руб/год<br>Основана: 1997<br><i>Приоритетные ценности: моральные и семейные ценности, патриотизм и гражданские добродетели, самореализация и развитие талантов.</i>","iconCaption":"Русская","marker-color":"#ffd21e"}},{"type":"Feature","id":23,"geometry":{"type":"Point","coordinates":[37.676798,55.683884]},"properties":{"description":"Самсон\n\r<b>Москва, Кленовый бульвар, 7к2</b><br>Сегмент: низкий (цвет: жёлтый)<br>Цена: 405 000 — 540 000 руб/год<br>Основана: 1992<br><i>Приоритетные ценности: академические достижения и результативность, патриотизм и гражданские добродетели, самореализация и развитие талантов.</i>","iconCaption":"Самсон","marker-color":"#1e98ff"}},{"type":"Feature","id":24,"geometry":{"type":"Point","coordinates":[37.477202,55.631956]},"properties":{"description":"Солнечный ветер\n\r<b>Москва, улица Академика Варги, 2а</b><br>Сегмент: низкий (цвет: жёлтый)<br>Цена: 522 000 руб/год<br>Основана: 1996<br><i>Приоритетные ценности: доброта и взаимопомощь, ответственность за свои действия и обучение, сотрудничество и командная работа.</i>","iconCaption":"Солнечный ветер","marker-color":"#1e98ff"}},{"type":"Feature","id":25,"geometry":{"type":"Point","coordinates":[37.588341,55.616681]},"properties":{"description":"Центр образования «Столичный»\n\r<b>Москва, Чертановская улица, 34а</b><br>Сегмент: низкий (цвет: жёлтый)<br>Цена: 378 000 — 710 500 руб/год<br>Основана: 1991<br><i>Приоритетные ценности: патриотизм и гражданские добродетели, самореализация и развитие талантов, уважение к личности, разнообразию мнений и культур.</i>","iconCaption":"Центр образования «Столичный»","marker-color":"#1e98ff"}},{"type":"Feature","id":26,"geometry":{"type":"Point","coordinates":[37.590749,55.805245]},"properties":{"description":"Академическая гимназия\n\r<b>Москва, Новодмитровская улица, 2с9</b><br>Сегмент: средний (цвет: оранжевый)<br>Цена: 1 000 000 руб/год<br>Основана: 1994<br><i>Приоритетные ценности: академические достижения и результативность, дисциплина и порядок, уважение к авторитету.</i>","iconCaption":"Академическая гимназия","marker-color":"#1e98ff"}},{"type":"Feature","id":27,"geometry":{"type":"Point","coordinates":[37.156359,55.621206]},"properties":{"description":"Гимназия Святителя Василия Великого\n\r<b>Московская область, Одинцовский городской округ, деревня Зайцево, Кокошкинское шоссе, 1</b><br>Сегмент: средний (цвет: оранжевый)<br>Цена: 909 000 — 1 116 000 руб/год<br>Основана: 2006<br><i>Приоритетные ценности: моральные и семейные ценности, ответственность за свои действия и обучение, патриотизм и гражданские добродетели.</i>","iconCaption":"Гимназия Святителя Василия Великого","marker-color":"#1e98ff"}},{"type":"Feature","id":28,"geometry":{"type":"Point","coordinates":[37.277371,55.680661]},"properties":{"description":"Горчаковский лицей МГИМО\n\r<b>Московская область, Одинцово, Новоcпортивная улица, 3</b><br>Сегмент: средний (цвет: оранжевый)<br>Цена: 900 000 — 1 050 000 руб/год<br>Основана: 2016<br><i>Приоритетные ценности: академические достижения и результативность, конкуренция и индивидуальные достижения, уважение к личности, разнообразию мнений и культур.</i>","iconCaption":"Горчаковский МГИМО","marker-color":"#1e98ff"}},{"type":"Feature","id":29,"geometry":{"type":"Point","coordinates":[38.129792,55.588923]},"properties":{"description":"Древо познаний\n\r<b>Московская область, Жуковский, улица Калугина, 9/1</b><br>Сегмент: средний (цвет: оранжевый)<br>Цена: 605 000 руб/год<br>Основана: 2022<br><i>Приоритетные ценности: академические достижения и результативность, естественное развитие и индивидуальный темп, сотрудничество и командная работа.</i>","iconCaption":"Древо познаний","marker-color":"#1e98ff"}},{"type":"Feature","id":30,"geometry":{"type":"Point","coordinates":[37.667878,55.791071]},"properties":{"description":"Европейская гимназия\n\r<b>Москва, улица Сокольнический Вал, 28</b><br>Сегмент: средний (цвет: оранжевый)<br>Цена: 775 000 — 1 143 000 руб/год<br>Основана: 1992<br><i>Приоритетные ценности: ответственность за свои действия и обучение, самореализация и развитие талантов, эмоциональная безопасность и поддержка.</i>","iconCaption":"Европейская гимназия","marker-color":"#1e98ff"}},{"type":"Feature","id":31,"geometry":{"type":"Point","coordinates":[37.603577,55.721939]},"properties":{"description":"Золотое сечение\n\r<b>Москва, Ленинский проспект, 13а (5–11-й класс)</b><br>Сегмент: средний (цвет: оранжевый)<br>Цена: 1 120 000 — 1 300 000 руб/год<br>Основана: 1992<br><i>Приоритетные ценности: академические достижения и результативность, моральные и семейные ценности, сотрудничество и командная работа.</i>","iconCaption":"Золотое сечение","marker-color":"#1e98ff"}},{"type":"Feature","id":32,"geometry":{"type":"Point","coordinates":[37.743085,55.677387]},"properties":{"description":"Карьера\n\r<b>Москва, Краснодарская улица, 11</b><br>Сегмент: средний (цвет: оранжевый)<br>Цена: 650 000 — 730 000 руб/год<br>Основана: 1998<br><i>Приоритетные ценности: ответственность за свои действия и обучение, самореализация и развитие талантов, сотрудничество и командная работа.</i>","iconCaption":"Карьера","marker-color":"#1e98ff"}},{"type":"Feature","id":33,"geometry":{"type":"Point","coordinates":[37.775092,55.80651]},"properties":{"description":"Колибри\n\r<b>Москва, Никитинская улица, 24а</b><br>Сегмент: средний (цвет: оранжевый)<br>Цена: 700 000 — 720 000 руб/год<br>Основана: 1993<br><i>Приоритетные ценности: академические достижения и результативность, уважение к личности, разнообразию мнений и культур, эмоциональная безопасность и поддержка.</i>","iconCaption":"Колибри","marker-color":"#1e98ff"}},{"type":"Feature","id":34,"geometry":{"type":"Point","coordinates":[37.375674,55.898922]},"properties":{"description":"Лидер\n\r<b>Москва, Юровская улица, 41</b><br>Сегмент: средний (цвет: оранжевый)<br>Цена: 525 000 — 740 000 руб/год<br>Основана: 2004<br><i>Приоритетные ценности: академические достижения и результативность, лидерские качества и инициативность, эмоциональная безопасность и поддержка.</i>","iconCaption":"Лидер","marker-color":"#1e98ff"}},{"type":"Feature","id":35,"geometry":{"type":"Point","coordinates":[37.333938,55.72814]},"properties":{"description":"Лидеры\n\r<b>Московская область, Одинцовский городской округ, село Ромашково, Никольская улица, 16к2</b><br>Сегмент: средний (цвет: оранжевый)<br>Цена: 1 140 000 руб/год<br>Основана: 2015<br><i>Приоритетные ценности: академические достижения и результативность, доброта и взаимопомощь, лидерские качества и инициативность.</i>","iconCaption":"Лидеры","marker-color":"#1e98ff"}},{"type":"Feature","id":36,"geometry":{"type":"Point","coordinates":[37.557502,55.808113]},"properties":{"description":"Лучик\n\r<b>Москва, улица Вучетича, 7а</b><br>Сегмент: средний (цвет: оранжевый)<br>Цена: 495 000 — 841 000 руб/год<br>Основана: 1995<br><i>Приоритетные ценности: академические достижения и результативность, моральные и семейные ценности, эмоциональная безопасность и поддержка.</i>","iconCaption":"Лучик","marker-color":"#1e98ff"}},{"type":"Feature","id":37,"geometry":{"type":"Point","coordinates":[37.527157,55.678032]},"properties":{"description":"Москвич\n\r<b>Москва, Ленинский проспект, 86б</b><br>Сегмент: средний (цвет: оранжевый)<br>Цена: 680 000 руб/год<br>Основана: 1991<br><i>Приоритетные ценности: академические достижения и результативность, моральные и семейные ценности, самореализация и развитие талантов.</i>","iconCaption":"Москвич","marker-color":"#1e98ff"}},{"type":"Feature","id":38,"geometry":{"type":"Point","coordinates":[37.642752,55.773449]},"properties":{"description":"Московский лицей «Ступени»\n\r<b>Москва, Скорняжный переулок, 3с2</b><br>Сегмент: средний (цвет: оранжевый)<br>Цена: 798 300 руб/год<br>Основана: 1990<br><i>Приоритетные ценности: академические достижения и результативность, дисциплина и порядок, моральные и семейные ценности.</i>","iconCaption":"Московский «Ступени»","marker-color":"#1e98ff"}},{"type":"Feature","id":39,"geometry":{"type":"Point","coordinates":[37.503747,55.806034]},"properties":{"description":"Муми-Тролль\n\r<b>Москва, Волоколамское шоссе, 1а</b><br>Сегмент: средний (цвет: оранжевый)<br>Цена: С 753 000 — 890 000 руб/год<br>Основана: 1990<br><i>Приоритетные ценности: академические достижения и результативность, самореализация и развитие талантов, уважение к личности, разнообразию мнений и культур.</i>","iconCaption":"Муми-Тролль","marker-color":"#1e98ff"}},{"type":"Feature","id":40,"geometry":{"type":"Point","coordinates":[37.722163,55.636031]},"properties":{"description":"Наследник\n\r<b>Москва, улица Борисовские Пруды, 19к1</b><br>Сегмент: средний (цвет: оранжевый)<br>Цена: 960 400 — 1 395 000 руб/год<br>Основана: 1992<br><i>Приоритетные ценности: академические достижения и результативность, лидерские качества и инициативность, равенство и самоуправление.</i>","iconCaption":"Наследник","marker-color":"#1e98ff"}},{"type":"Feature","id":41,"geometry":{"type":"Point","coordinates":[37.295733,55.423662]},"properties":{"description":"Ника\n\n<b>Москва, поселение Краснопахорское, село Красное, 3а</b><br>Сегмент: средний (цвет: оранжевый)<br>Цена: 942 000 — 991 300 руб/год<br>Основана: 1995<br><i>Приоритетные ценности: академические достижения и результативность, самореализация и развитие талантов, эмоциональная безопасность и поддержка.</i>","iconCaption":"Ника","marker-color":"#1e98ff"}},{"type":"Feature","id":42,"geometry":{"type":"Point","coordinates":[37.490308,55.704844]},"properties":{"description":"Новая школа\n\r<b>Москва, Мосфильмовская улица, 88к5</b><br>Сегмент: средний (цвет: оранжевый)<br>Цена: 1 070 000 руб/год<br>Основана: 2017<br><i>Приоритетные ценности: ответственность за свои действия и обучение, самореализация и развитие талантов, сотрудничество и командная работа.</i>","iconCaption":"Новая","marker-color":"#1e98ff"}},{"type":"Feature","id":43,"geometry":{"type":"Point","coordinates":[37.316933,55.757004]},"properties":{"description":"Областная гимназия имени Е. М. Примакова\n\r<b>Московская область, Одинцовский городской округ, деревня Раздоры, Утренняя улица, 1</b><br>Сегмент: средний (цвет: оранжевый)<br>Цена: 990 000 руб/год<br>Основана: 2017<br><i>Приоритетные ценности: академические достижения и результативность, лидерские качества и инициативность, сотрудничество и командная работа.</i>","iconCaption":"Областная гимназия имени Е. М. Примакова","marker-color":"#1e98ff"}},{"type":"Feature","id":44,"geometry":{"type":"Point","coordinates":[37.066752,55.802381]},"properties":{"description":"Областной технолицей имени В. И. Долгих\n\r<b>Московская область, муниципальный округ Истра, село Павловская Слобода, Академическая улица, 1</b><br>Сегмент: средний (цвет: оранжевый)<br>Цена: 990 000 руб/год<br>Основана: 2023<br><i>Приоритетные ценности: академические достижения и результативность, лидерские качества и инициативность, моральные и семейные ценности.</i>","iconCaption":"Областной технолицей имени В. И. Долгих","marker-color":"#1e98ff"}},{"type":"Feature","id":45,"geometry":{"type":"Point","coordinates":[37.411957,55.747439]},"properties":{"description":"Олимп-Плюс\n\r<b>Москва, Рублевское шоссе, 121</b><br>Сегмент: средний (цвет: оранжевый)<br>Цена: 923 000 — 1 073 000 руб/год<br>Основана: 1998<br><i>Приоритетные ценности: академические достижения и результативность, ответственность за свои действия и обучение, самореализация и развитие талантов.</i>","iconCaption":"Олимп-Плюс","marker-color":"#1e98ff"}},{"type":"Feature","id":46,"geometry":{"type":"Point","coordinates":[37.541395,55.682052]},"properties":{"description":"СААШ «Марина»\n\r<b>Москва, улица Панферова, 6к2</b><br>Сегмент: средний (цвет: оранжевый)<br>Цена: 600 000 руб/год<br>Основана: 1991<br><i>Приоритетные ценности: доброта и взаимопомощь, самореализация и развитие талантов, сотрудничество и командная работа.</i>","iconCaption":"СААШ «Марина»","marker-color":"#1e98ff"}},{"type":"Feature","id":47,"geometry":{"type":"Point","coordinates":[37.562694,55.673367]},"properties":{"description":"Феникс\n\r<b>Москва, Профсоюзная улица, 27к3</b><br>Сегмент: средний (цвет: оранжевый)<br>Цена: 342 000 — 825 000 руб/год<br>Основана: 2010<br><i>Приоритетные ценности: моральные и семейные ценности, ответственность за свои действия и обучение, эмпатия и способность понимать других.</i>","iconCaption":"Феникс","marker-color":"#1e98ff"}},{"type":"Feature","id":48,"geometry":{"type":"Point","coordinates":[37.621875,55.789492]},"properties":{"description":"Школа ЦПМ\n\r<b>Москва, Олимпийский проспект, 11с1</b><br>Сегмент: средний (цвет: оранжевый)<br>Цена: 577 800 — 652 500 руб/год<br>Основана: 2019<br><i>Приоритетные ценности: академические достижения и результативность, ответственность за свои действия и обучение, открытый диалог.</i>","iconCaption":"ЦПМ","marker-color":"#1e98ff"}},{"type":"Feature","id":49,"geometry":{"type":"Point","coordinates":[37.574139,55.672174]},"properties":{"description":"Британская международная школа\n\r<b>Москва, Нахимовский проспект, 35а</b><br>Сегмент: высокий (цвет: красный)<br>Цена: 1 270 000 — 3 476 000 руб/год<br>Основана: 1994<br><i>Приоритетные ценности: академические достижения и результативность, лидерские качества и инициативность, уважение к личности, разнообразию мнений и культур.</i>","iconCaption":"Британская международная","marker-color":"#1e98ff"}},{"type":"Feature","id":50,"geometry":{"type":"Point","coordinates":[37.405705,55.807193]},"properties":{"description":"Интеграция XXI век\n\r<b>Москва, улица Маршала Катукова, 16к1</b><br>Сегмент: высокий (цвет: красный)<br>Цена: 950 000 — 1 985 000 руб/год<br>Основана: 1996<br><i>Приоритетные ценности: естественное развитие и индивидуальный темп, самореализация и развитие талантов, уважение к личности, разнообразию мнений и культур.</i>","iconCaption":"Интеграция XXI век","marker-color":"#1e98ff"}},{"type":"Feature","id":51,"geometry":{"type":"Point","coordinates":[37.456001,55.71447]},"properties":{"description":"Ломоносовская школа\n\r<b>Москва, Аминьевское шоссе, 18к4</b><br>Сегмент: высокий (цвет: красный)<br>Цена: 1 845 000 руб/год<br>Основана: 1993<br><i>Приоритетные ценности: академические достижения и результативность, моральные и семейные ценности, сотрудничество и командная работа.</i>","iconCaption":"Ломоносовская","marker-color":"#1e98ff"}},{"type":"Feature","id":52,"geometry":{"type":"Point","coordinates":[37.009673,55.788738]},"properties":{"description":"Ломоносовская школа «Интек»\n\r<b>Московская область, муниципальный округ Истра, деревня Воронино, клубный поселок «Монолит», Клубная аллея, 2</b><br>Сегмент: высокий (цвет: красный)<br>Цена: 1 845 000 руб/год<br>Основана: 2008<br><i>Приоритетные ценности: академические достижения и результативность, дисциплина и порядок, сотрудничество и командная работа.</i>","iconCaption":"Ломоносовская «Интек»","marker-color":"#1e98ff"}},{"type":"Feature","id":53,"geometry":{"type":"Point","coordinates":[37.63606,56.085008]},"properties":{"description":"Ломоносовская школа — Зеленый мыс\n\r<b>Московская область, городской округ Мытищи, деревня Подольниха, Клубная улица, 2с1</b><br>Сегмент: высокий (цвет: красный)<br>Цена: 1 485 000 руб/год<br>Основана: 2008<br><i>Приоритетные ценности: академические достижения и результативность, доброта и взаимопомощь, упорный труд.</i>","iconCaption":"Ломоносовская — Зеленый мыс","marker-color":"#1e98ff"}},{"type":"Feature","id":54,"geometry":{"type":"Point","coordinates":[37.351393,55.691597]},"properties":{"description":"Международная гимназия «Сколково»\n\r<b>Москва, территория инновационного центра «Сколково», улица Зворыкина, 4</b><br>Сегмент: высокий (цвет: красный)<br>Цена: 1 643 000 руб/год<br>Основана: 2015<br><i>Приоритетные ценности: академические достижения и результативность, ответственность за свои действия и обучение, сотрудничество и командная работа.</i>","iconCaption":"Международная гимназия «Сколково»","marker-color":"#1e98ff"}},{"type":"Feature","id":55,"geometry":{"type":"Point","coordinates":[37.525261,55.713791]},"properties":{"description":"Наши традиции\n\r<b>Москва, Мичуринский проспект, 6к4</b><br>Сегмент: высокий (цвет: красный)<br>Цена: 1 320 000 руб/год<br>Основана: 1996<br><i>Приоритетные ценности: академические достижения и результативность, дисциплина и порядок, лидерские качества и инициативность.</i>","iconCaption":"Наши традиции","marker-color":"#1e98ff"}},{"type":"Feature","id":56,"geometry":{"type":"Point","coordinates":[37.5736,55.72743]},"properties":{"description":"Новый взгляд\n\r<b>Москва, 1-й Шибаевский переулок, 4</b><br>Сегмент: высокий (цвет: красный)<br>Цена: 1 067 000 — 2 145 000 руб/год<br>Основана: 2021<br><i>Приоритетные ценности: самореализация и развитие талантов, сотрудничество и командная работа, эмоциональная безопасность и поддержка.</i>","iconCaption":"Новый взгляд","marker-color":"#1e98ff"}},{"type":"Feature","id":57,"geometry":{"type":"Point","coordinates":[37.126113,55.80143]},"properties":{"description":"Павловская гимназия\n\r<b>Московская область, муниципальный округ Истра, деревня Веледниково, Живописная улица, 136</b><br>Сегмент: высокий (цвет: красный)<br>Цена: 1 950 000 — 2 150 000 руб/год<br>Основана: 2009<br><i>Приоритетные ценности: академические достижения и результативность, ответственность за свои действия и обучение, сотрудничество и командная работа.</i>","iconCaption":"Павловская гимназия","marker-color":"#1e98ff"}},{"type":"Feature","id":58,"geometry":{"type":"Point","coordinates":[36.954858,55.76957]},"properties":{"description":"Первая Московская гимназия\n\r<b>Московская область, Одинцовский городской округ, деревня Липки, 63а</b><br>Сегмент: высокий (цвет: красный)<br>Цена: 1 500 000 — 2 200 000 руб/год<br>Основана: 2002<br><i>Приоритетные ценности: академические достижения и результативность, самореализация и развитие талантов, эмоциональная безопасность и поддержка.</i>","iconCaption":"Первая Московская гимназия","marker-color":"#1e98ff"}},{"type":"Feature","id":59,"geometry":{"type":"Point","coordinates":[37.226248,55.736295]},"properties":{"description":"Президент\n\r<b>Московская область, Одинцовский городской округ, деревня Жуковка, Ильинский подъезд, 2с1–4</b><br>Сегмент: высокий (цвет: красный)<br>Цена: 2 000 000 — 2 300 000 руб/год<br>Основана: 1993<br><i>Приоритетные ценности: академические достижения и результативность, дисциплина и порядок, принятие рисков и обучение на ошибках.</i>","iconCaption":"Президент","marker-color":"#1e98ff"}},{"type":"Feature","id":60,"geometry":{"type":"Point","coordinates":[37.364751,55.698148]},"properties":{"description":"Сколка\n\r<b>Москва, территория инновационного центра «Сколково», Большой бульвар, 37</b><br>Сегмент: высокий (цвет: красный)<br>Цена: 1 705 000 — 2 475 000 руб/год<br>Основана: 2023<br><i>Приоритетные ценности: ответственность за свои действия и обучение, самореализация и развитие талантов, эмоциональная безопасность и поддержка.</i>","iconCaption":"Сколка","marker-color":"#1e98ff"}},{"type":"Feature","id":61,"geometry":{"type":"Point","coordinates":[37.505723,55.715849]},"properties":{"description":"Снегири\n\r<b>Москва, Минская улица, 2Вк2</b><br>Сегмент: высокий (цвет: красный)<br>Цена: 1 320 000 — 1 920 000 руб/год<br>Основана: 2020<br><i>Приоритетные ценности: академические достижения и результативность, естественное развитие и индивидуальный темп, открытый диалог.</i>","iconCaption":"Снегири","marker-color":"#1e98ff"}},{"type":"Feature","id":62,"geometry":{"type":"Point","coordinates":[37.466098,55.784015]},"properties":{"description":"Хорошкола\n\r<b>Москва, улица Маршала Тухачевского, 45к2</b><br>Сегмент: высокий (цвет: красный)<br>Цена: 1 490 000 — 1 890 000 руб/год<br>Основана: 2013<br><i>Приоритетные ценности: академические достижения и результативность, естественное развитие и индивидуальный темп, самореализация и развитие талантов.</i>","iconCaption":"Хорошкола","marker-color":"#1e98ff"}},{"type":"Feature","id":63,"geometry":{"type":"Point","coordinates":[37.656568,55.743015]},"properties":{"description":"Школа Сотрудничества\n\r<b>Москва, улица Александра Солженицына, 9а</b><br>Сегмент: высокий (цвет: красный)<br>Цена: 1 332 000 — 1 746 000 руб/год<br>Основана: 1990<br><i>Приоритетные ценности: академические достижения и результативность, моральные и семейные ценности, целеустремленность и настойчивость.</i>","iconCaption":"Сотрудничества","marker-color":"#1e98ff"}},{"type":"Feature","id":64,"geometry":{"type":"Point","coordinates":[37.473734,55.85576]},"properties":{"description":"Cambridge International School\n\r<b>Москва, Фестивальная улица, 7а</b><br>Сегмент: высокий (цвет: красный)<br>Цена: 1 554 000 — 3 389 000 руб/год<br>Основана: 2015<br><i>Приоритетные ценности: академические достижения и результативность, самореализация и развитие талантов, уважение к личности, разнообразию мнений и культур.</i>","iconCaption":"Cambridge International School","marker-color":"#1e98ff"}},{"type":"Feature","id":65,"geometry":{"type":"Point","coordinates":[37.617644,55.755819]},"properties":{"description":"Heritage International School\n\r<b>Москва, Верхняя Краснобогатырская улица, 90с3</b><br>Сегмент: высокий (цвет: красный)<br>Цена: 1 790 000 — 2 380 000 руб/год<br>Основана: 2020<br><i>Приоритетные ценности: ответственность за свои действия и обучение, принятие рисков и обучение на ошибках, уважение к личности, разнообразию мнений и культур.</i>","iconCaption":"Heritage International School","marker-color":"#1e98ff"}},{"type":"Feature","id":66,"geometry":{"type":"Point","coordinates":[37.275135,55.74075]},"properties":{"description":"Russian International School\n\r<b>Московская область, Одинцовский городской округ, деревня Барвиха, 42</b><br>Сегмент: высокий (цвет: красный)<br>Цена: 1 320 000 — 2 472 000 руб/год<br>Основана: 2008<br><i>Приоритетные ценности: академические достижения и результативность, самореализация и развитие талантов, эмоциональная безопасность и поддержка.</i>","iconCaption":"Russian International School","marker-color":"#1e98ff"}},{"type":"Feature","id":67,"geometry":{"type":"Point","coordinates":[37.056458,55.822144]},"properties":{"description":"Wunderpark International School\n\r<b>Московская область, муниципальный округ Истра, деревня Борзые, 1</b><br>Сегмент: высокий (цвет: красный)<br>Цена: 1 700 000 — 2 100 000 руб/год<br>Основана: 2015<br><i>Приоритетные ценности: самореализация и развитие талантов, сотрудничество и командная работа, эмоциональная безопасность и поддержка.</i>","iconCaption":"Wunderpark International School","marker-color":"#1e98ff"}}]}